SYRACUSE 4A             
1 49333U 21095B   26062.10530860  .00000000  00000+0  00000+0 0  9996
2 49333   0.0269 150.7647 0001477 199.1205 254.4163  1.00269846 16881
QZS-1R (MICHIBIKI-1R)   
1 49336U 21096A   26060.38447264 -.00000259  00000+0  00000+0 0  9990
2 49336  37.2374  81.1754 0747027 269.6443  80.6815  1.00291836 15925
ZHONGXING-1D            
1 49505U 21114A   26062.04167024 -.00000352  00000+0  00000+0 0  9991
2 49505   0.0414 296.4682 0002823 292.0833  77.4070  1.00273029 15750
STPSAT-6                
1 49817U 21118A   26062.15947694 -.00000060  00000+0  00000+0 0  9998
2 49817   0.0484  89.2439 0002770 231.0621 146.2218  1.00269611 15515
LDPE-1                  
1 49818U 21118B   26062.12787346 -.00000040  00000+0  00000+0 0  9990
2 49818   4.4641  77.9079 0001395  93.9824 239.8071  0.98921564 15586
EXPRESS AMU-7           
1 50001U 21123A   26062.25865413  .00000000  00000+0  00000+0 0  9993
2 50001   0.0224 160.4275 0000188 181.9230  56.8057  1.00268756 15475
EXPRESS AMU-3           
1 50002U 21123B   26060.27231321  .00000000  00000+0  00000+0 0  9999
2 50002   0.0170 158.6627 0000250 272.3517 288.9884  1.00269990  5958
TIANLIAN 2-02           
1 50005U 21124A   26062.19252712 -.00000030  00000+0  00000+0 0  9997
2 50005   0.5272  88.2423 0004852 205.9356 107.0331  1.00271633 15558
TURKSAT 5B              
1 50212U 21126A   26061.88164851  .00000130  00000+0  00000+0 0  9990
2 50212   0.0754 327.6442 0005525   0.3477 192.0141  1.00271895 15236
INMARSAT 6-F1           
1 50319U 21128A   26062.10386667 -.00000187  00000+0  00000+0 0  9990
2 50319   0.0192 170.2412 0000152 128.9717 342.7983  1.00271445 15198
SHIYAN-12 01 (SY-12 01) 
1 50321U 21129A   26061.51510656 -.00000321  00000+0  00000+0 0  9995
2 50321   3.3992  81.3816 0003814 245.7195 158.5080  1.00096340 15438
SHIYAN-12 02 (SY-12 02) 
1 50322U 21129B   26061.19642995  .00000109  00000+0  00000+0 0  9995
2 50322   3.3987  81.4032 0003544 221.2403 313.6135  1.00092310 15422
TJS-9                   
1 50574U 21135A   26062.14365447 -.00000315  00000+0  00000+0 0  9991
2 50574   0.0322 115.5243 0004142  35.8707 198.3901  1.00267627 15369
GOES 18                 
1 51850U 22021A   26062.13151346  .00000081  00000+0  00000+0 0  9993
2 51850   0.0269  75.3180 0000581 316.5209  39.3881  1.00271419  5521
ZHONGXING-6D            
1 52255U 22038A   26061.20800904 -.00000371  00000+0  00000+0 0  9992
2 52255   0.0510 252.7095 0002384  57.0765  50.1555  1.00269787 14347
NILESAT 301             
1 52817U 22061A   26062.05808873  .00000000  00000+0  00000+0 0  9997
2 52817   0.0235 330.1245 0005603  17.8679 186.7832  1.00272906 13674
CMS-02 (GSAT 24)        
1 52903U 22067A   26062.03248352 -.00000181  00000+0  00000+0 0  9998
2 52903   0.0522 258.9762 0002823  34.4560 322.0693  1.00272227 13547
