[{"OBJECT_NAME":"SYRACUSE 4A","OBJECT_ID":"2021-095B","EPOCH":"2026-03-03T02:31:38.663040","MEAN_MOTION":1.00269846,"ECCENTRICITY":0.0001477,"INCLINATION":0.0269,"RA_OF_ASC_NODE":150.7647,"ARG_OF_PERICENTER":199.1205,"MEAN_ANOMALY":254.4163,"EPHEMERIS_TYPE":0,"CLASSIFICATION_TYPE":"U","NORAD_CAT_ID":49333,"ELEMENT_SET_NO":999,"REV_AT_EPOCH":1688,"BSTAR":0,"MEAN_MOTION_DOT":0,"MEAN_MOTION_DDOT":0},{"OBJECT_NAME":"QZS-1R (MICHIBIKI-1R)","OBJECT_ID":"2021-096A","EPOCH":"2026-03-01T09:13:38.436096","MEAN_MOTION":1.00291836,"ECCENTRICITY":0.07470272,"INCLINATION":37.2374,"RA_OF_ASC_NODE":81.1754,"ARG_OF_PERICENTER":269.6443,"MEAN_ANOMALY":80.6815,"EPHEMERIS_TYPE":0,"CLASSIFICATION_TYPE":"U","NORAD_CAT_ID":49336,"ELEMENT_SET_NO":999,"REV_AT_EPOCH":1592,"BSTAR":0,"MEAN_MOTION_DOT":-2.59e-6,"MEAN_MOTION_DDOT":0},{"OBJECT_NAME":"ZHONGXING-1D","OBJECT_ID":"2021-114A","EPOCH":"2026-03-03T01:00:00.308736","MEAN_MOTION":1.00273029,"ECCENTRICITY":0.0002823,"INCLINATION":0.0414,"RA_OF_ASC_NODE":296.4682,"ARG_OF_PERICENTER":292.0833,"MEAN_ANOMALY":77.407,"EPHEMERIS_TYPE":0,"CLASSIFICATION_TYPE":"U","NORAD_CAT_ID":49505,"ELEMENT_SET_NO":999,"REV_AT_EPOCH":1575,"BSTAR":0,"MEAN_MOTION_DOT":-3.52e-6,"MEAN_MOTION_DDOT":0},{"OBJECT_NAME":"STPSAT-6","OBJECT_ID":"2021-118A","EPOCH":"2026-03-03T03:49:38.807616","MEAN_MOTION":1.00269611,"ECCENTRICITY":0.000277,"INCLINATION":0.0484,"RA_OF_ASC_NODE":89.2439,"ARG_OF_PERICENTER":231.0621,"MEAN_ANOMALY":146.2218,"EPHEMERIS_TYPE":0,"CLASSIFICATION_TYPE":"U","NORAD_CAT_ID":49817,"ELEMENT_SET_NO":999,"REV_AT_EPOCH":1551,"BSTAR":0,"MEAN_MOTION_DOT":-6.0e-7,"MEAN_MOTION_DDOT":0},{"OBJECT_NAME":"LDPE-1","OBJECT_ID":"2021-118B","EPOCH":"2026-03-03T03:04:08.266944","MEAN_MOTION":0.98921564,"ECCENTRICITY":0.0001395,"INCLINATION":4.4641,"RA_OF_ASC_NODE":77.9079,"ARG_OF_PERICENTER":93.9824,"MEAN_ANOMALY":239.8071,"EPHEMERIS_TYPE":0,"CLASSIFICATION_TYPE":"U","NORAD_CAT_ID":49818,"ELEMENT_SET_NO":999,"REV_AT_EPOCH":1558,"BSTAR":0,"MEAN_MOTION_DOT":-4.0e-7,"MEAN_MOTION_DDOT":0},{"OBJECT_NAME":"EXPRESS AMU-7","OBJECT_ID":"2021-123A","EPOCH":"2026-03-03T06:12:27.716832","MEAN_MOTION":1.00268756,"ECCENTRICITY":1.88e-5,"INCLINATION":0.0224,"RA_OF_ASC_NODE":160.4275,"ARG_OF_PERICENTER":181.923,"MEAN_ANOMALY":56.8057,"EPHEMERIS_TYPE":0,"CLASSIFICATION_TYPE":"U","NORAD_CAT_ID":50001,"ELEMENT_SET_NO":999,"REV_AT_EPOCH":1547,"BSTAR":0,"MEAN_MOTION_DOT":0,"MEAN_MOTION_DDOT":0},{"OBJECT_NAME":"EXPRESS AMU-3","OBJECT_ID":"2021-123B","EPOCH":"2026-03-01T06:32:07.861344","MEAN_MOTION":1.0026999,"ECCENTRICITY":2.501e-5,"INCLINATION":0.017,"RA_OF_ASC_NODE":158.6627,"ARG_OF_PERICENTER":272.3517,"MEAN_ANOMALY":288.9884,"EPHEMERIS_TYPE":0,"CLASSIFICATION_TYPE":"U","NORAD_CAT_ID":50002,"ELEMENT_SET_NO":999,"REV_AT_EPOCH":595,"BSTAR":0,"MEAN_MOTION_DOT":0,"MEAN_MOTION_DDOT":0},{"OBJECT_NAME":"TIANLIAN 2-02","OBJECT_ID":"2021-124A","EPOCH":"2026-03-03T04:37:14.343168","MEAN_MOTION":1.00271633,"ECCENTRICITY":0.0004852,"INCLINATION":0.5272,"RA_OF_ASC_NODE":88.2423,"ARG_OF_PERICENTER":205.9356,"MEAN_ANOMALY":107.0331,"EPHEMERIS_TYPE":0,"CLASSIFICATION_TYPE":"U","NORAD_CAT_ID":50005,"ELEMENT_SET_NO":999,"REV_AT_EPOCH":1555,"BSTAR":0,"MEAN_MOTION_DOT":-3.0e-7,"MEAN_MOTION_DDOT":0},{"OBJECT_NAME":"TURKSAT 5B","OBJECT_ID":"2021-126A","EPOCH":"2026-03-02T21:09:34.431264","MEAN_MOTION":1.00271895,"ECCENTRICITY":0.0005525,"INCLINATION":0.0754,"RA_OF_ASC_NODE":327.6442,"ARG_OF_PERICENTER":0.3477,"MEAN_ANOMALY":192.0141,"EPHEMERIS_TYPE":0,"CLASSIFICATION_TYPE":"U","NORAD_CAT_ID":50212,"ELEMENT_SET_NO":999,"REV_AT_EPOCH":1523,"BSTAR":0,"MEAN_MOTION_DOT":1.3e-6,"MEAN_MOTION_DDOT":0},{"OBJECT_NAME":"INMARSAT 6-F1","OBJECT_ID":"2021-128A","EPOCH":"2026-03-03T02:29:34.080288","MEAN_MOTION":1.00271445,"ECCENTRICITY":1.52e-5,"INCLINATION":0.0192,"RA_OF_ASC_NODE":170.2412,"ARG_OF_PERICENTER":128.9717,"MEAN_ANOMALY":342.7983,"EPHEMERIS_TYPE":0,"CLASSIFICATION_TYPE":"U","NORAD_CAT_ID":50319,"ELEMENT_SET_NO":999,"REV_AT_EPOCH":1519,"BSTAR":0,"MEAN_MOTION_DOT":-1.87e-6,"MEAN_MOTION_DDOT":0},{"OBJECT_NAME":"SHIYAN-12 01 (SY-12 01)","OBJECT_ID":"2021-129A","EPOCH":"2026-03-02T12:21:45.206784","MEAN_MOTION":1.0009634,"ECCENTRICITY":0.0003814,"INCLINATION":3.3992,"RA_OF_ASC_NODE":81.3816,"ARG_OF_PERICENTER":245.7195,"MEAN_ANOMALY":158.508,"EPHEMERIS_TYPE":0,"CLASSIFICATION_TYPE":"U","NORAD_CAT_ID":50321,"ELEMENT_SET_NO":999,"REV_AT_EPOCH":1543,"BSTAR":0,"MEAN_MOTION_DOT":-3.21e-6,"MEAN_MOTION_DDOT":0},{"OBJECT_NAME":"SHIYAN-12 02 (SY-12 02)","OBJECT_ID":"2021-129B","EPOCH":"2026-03-02T04:42:51.547680","MEAN_MOTION":1.0009231,"ECCENTRICITY":0.0003544,"INCLINATION":3.3987,"RA_OF_ASC_NODE":81.4032,"ARG_OF_PERICENTER":221.2403,"MEAN_ANOMALY":313.6135,"EPHEMERIS_TYPE":0,"CLASSIFICATION_TYPE":"U","NORAD_CAT_ID":50322,"ELEMENT_SET_NO":999,"REV_AT_EPOCH":1542,"BSTAR":0,"MEAN_MOTION_DOT":1.09e-6,"MEAN_MOTION_DDOT":0},{"OBJECT_NAME":"TJS-9","OBJECT_ID":"2021-135A","EPOCH":"2026-03-03T03:26:51.746208","MEAN_MOTION":1.00267627,"ECCENTRICITY":0.0004142,"INCLINATION":0.0322,"RA_OF_ASC_NODE":115.5243,"ARG_OF_PERICENTER":35.8707,"MEAN_ANOMALY":198.3901,"EPHEMERIS_TYPE":0,"CLASSIFICATION_TYPE":"U","NORAD_CAT_ID":50574,"ELEMENT_SET_NO":999,"REV_AT_EPOCH":1536,"BSTAR":0,"MEAN_MOTION_DOT":-3.15e-6,"MEAN_MOTION_DDOT":0},{"OBJECT_NAME":"GOES 18","OBJECT_ID":"2022-021A","EPOCH":"2026-03-03T03:09:22.762944","MEAN_MOTION":1.00271419,"ECCENTRICITY":5.81e-5,"INCLINATION":0.0269,"RA_OF_ASC_NODE":75.318,"ARG_OF_PERICENTER":316.5209,"MEAN_ANOMALY":39.3881,"EPHEMERIS_TYPE":0,"CLASSIFICATION_TYPE":"U","NORAD_CAT_ID":51850,"ELEMENT_SET_NO":999,"REV_AT_EPOCH":552,"BSTAR":0,"MEAN_MOTION_DOT":8.1e-7,"MEAN_MOTION_DDOT":0},{"OBJECT_NAME":"ZHONGXING-6D","OBJECT_ID":"2022-038A","EPOCH":"2026-03-02T04:59:31.981056","MEAN_MOTION":1.00269787,"ECCENTRICITY":0.00023841,"INCLINATION":0.051,"RA_OF_ASC_NODE":252.7095,"ARG_OF_PERICENTER":57.0765,"MEAN_ANOMALY":50.1555,"EPHEMERIS_TYPE":0,"CLASSIFICATION_TYPE":"U","NORAD_CAT_ID":52255,"ELEMENT_SET_NO":999,"REV_AT_EPOCH":1434,"BSTAR":0,"MEAN_MOTION_DOT":-3.71e-6,"MEAN_MOTION_DDOT":0},{"OBJECT_NAME":"NILESAT 301","OBJECT_ID":"2022-061A","EPOCH":"2026-03-03T01:23:38.866272","MEAN_MOTION":1.00272906,"ECCENTRICITY":0.0005603,"INCLINATION":0.0235,"RA_OF_ASC_NODE":330.1245,"ARG_OF_PERICENTER":17.8679,"MEAN_ANOMALY":186.7832,"EPHEMERIS_TYPE":0,"CLASSIFICATION_TYPE":"U","NORAD_CAT_ID":52817,"ELEMENT_SET_NO":999,"REV_AT_EPOCH":1367,"BSTAR":0,"MEAN_MOTION_DOT":0,"MEAN_MOTION_DDOT":0},{"OBJECT_NAME":"CMS-02 (GSAT 24)","OBJECT_ID":"2022-067A","EPOCH":"2026-03-03T00:46:46.576128","MEAN_MOTION":1.00272227,"ECCENTRICITY":0.0002823,"INCLINATION":0.0522,"RA_OF_ASC_NODE":258.9762,"ARG_OF_PERICENTER":34.456,"MEAN_ANOMALY":322.0693,"EPHEMERIS_TYPE":0,"CLASSIFICATION_TYPE":"U","NORAD_CAT_ID":52903,"ELEMENT_SET_NO":999,"REV_AT_EPOCH":1354,"BSTAR":0,"MEAN_MOTION_DOT":-1.81e-6,"MEAN_MOTION_DDOT":0}]
